STARLINK-31629          
1 59255U 24050B   26063.76245060  .00000439  00000+0  26955-4 0  9990
2 59255  53.1612 203.9192 0001087 100.7349 259.3775 15.30190305109793
STARLINK-31652          
1 59256U 24050C   26064.07635395 -.00004016  00000+0 -12352-3 0  9992
2 59256  53.1587 202.3234 0000770  43.2359 316.8702 15.30208758109842
STARLINK-31637          
1 59258U 24050E   26063.41687085  .00003332  00000+0  12453-3 0  9994
2 59258  53.1610 205.3206 0001172  94.0940 266.0194 15.30210876109744
STARLINK-31506          
1 59259U 24050F   26063.75928513  .00000106  00000+0  15717-4 0  9999
2 59259  53.1602 203.8971 0001154 125.7221 234.3887 15.30191586109790
STARLINK-31639          
1 59261U 24050H   26064.07319365 -.00000047  00000+0  10539-4 0  9999
2 59261  53.1595 202.3015 0000492  21.6821 338.4200 15.30196839109848
STARLINK-31598          
1 59263U 24050K   26063.79515999  .00001908  00000+0  76542-4 0  9992
2 59263  53.1617 204.0999 0001989  94.7839 265.3389 15.30201273109796
STARLINK-31645          
1 59264U 24050L   26063.76982997  .00054561  00000+0  18390-2 0  9994
2 59264  53.1603 203.9609 0002221 319.3154  40.7681 15.30230390109796
STARLINK-31646          
1 59265U 24050M   26064.10273874  .00003627  00000+0  13453-3 0  9994
2 59265  53.1610 202.4810 0001095  90.7453 269.3673 15.30195837109845
STARLINK-31648          
1 59266U 24050N   26064.07953218 -.00000158  00000+0  67885-5 0  9995
2 59266  53.1615 202.3395 0001060  86.5353 273.5769 15.30189296109847
STARLINK-31579          
1 59267U 24050P   26063.76667674  .00001834  00000+0  74039-4 0  9998
2 59267  53.1614 203.9429 0001007  85.5994 274.5122 15.30196457109798
STARLINK-31627          
1 59268U 24050Q   26064.11540679  .00034434  00000+0  11688-2 0  9995
2 59268  53.1610 202.5617 0001336  82.7369 277.3783 15.30215606109847
STARLINK-31609          
1 59269U 24050R   26063.77299962  .00004132  00000+0  15153-3 0  9997
2 59269  53.1597 203.9779 0001100 104.6504 255.4619 15.30204299109795
STARLINK-31616          
1 59270U 24050S   26063.38744677 -.00001787  00000+0 -48215-4 0  9995
2 59270  53.1597 205.8379 0001405  82.9274 277.1886 15.30204044109733
STARLINK-31630          
1 59271U 24050T   26062.69047361  .00001204  00000+0  52763-4 0  9990
2 59271  53.1615 195.8102 0001575  82.4316 277.6863 15.30199500109816
STARLINK-31623          
1 59272U 24050U   26063.79294976 -.00000195  00000+0  55274-5 0  9999
2 59272  53.1620 203.4059 0000504   3.9665 356.1340 15.30186890109806
STARLINK-31595          
1 59273U 24050V   26063.88676024  .00000074  00000+0  14626-4 0  9998
2 59273  53.1589 203.2849 0000987  83.1491 276.9622 15.30182571109813
STARLINK-31463          
1 59296U 24056A   26063.87468450  .00001681  00000+0  70603-4 0  9992
2 59296  42.9997 253.9540 0001092 279.1265  80.9463 15.27568332110469
