[{"OBJECT_NAME":"STARLINK-31629","OBJECT_ID":"2024-050B","EPOCH":"2026-03-04T18:17:55.731840","MEAN_MOTION":15.30190305,"ECCENTRICITY":0.0001087,"INCLINATION":53.1612,"RA_OF_ASC_NODE":203.9192,"ARG_OF_PERICENTER":100.7349,"MEAN_ANOMALY":259.3775,"EPHEMERIS_TYPE":0,"CLASSIFICATION_TYPE":"U","NORAD_CAT_ID":59255,"ELEMENT_SET_NO":999,"REV_AT_EPOCH":10979,"BSTAR":2.6955e-5,"MEAN_MOTION_DOT":4.39e-6,"MEAN_MOTION_DDOT":0},{"OBJECT_NAME":"STARLINK-31652","OBJECT_ID":"2024-050C","EPOCH":"2026-03-05T01:49:56.981280","MEAN_MOTION":15.30208758,"ECCENTRICITY":7.7e-5,"INCLINATION":53.1587,"RA_OF_ASC_NODE":202.3234,"ARG_OF_PERICENTER":43.2359,"MEAN_ANOMALY":316.8702,"EPHEMERIS_TYPE":0,"CLASSIFICATION_TYPE":"U","NORAD_CAT_ID":59256,"ELEMENT_SET_NO":999,"REV_AT_EPOCH":10984,"BSTAR":-0.00012352,"MEAN_MOTION_DOT":-4.016e-5,"MEAN_MOTION_DDOT":0},{"OBJECT_NAME":"STARLINK-31637","OBJECT_ID":"2024-050E","EPOCH":"2026-03-04T10:00:17.641440","MEAN_MOTION":15.30210876,"ECCENTRICITY":0.00011721,"INCLINATION":53.161,"RA_OF_ASC_NODE":205.3206,"ARG_OF_PERICENTER":94.094,"MEAN_ANOMALY":266.0194,"EPHEMERIS_TYPE":0,"CLASSIFICATION_TYPE":"U","NORAD_CAT_ID":59258,"ELEMENT_SET_NO":999,"REV_AT_EPOCH":10974,"BSTAR":0.00012452855,"MEAN_MOTION_DOT":3.332e-5,"MEAN_MOTION_DDOT":0},{"OBJECT_NAME":"STARLINK-31506","OBJECT_ID":"2024-050F","EPOCH":"2026-03-04T18:13:22.235232","MEAN_MOTION":15.30191586,"ECCENTRICITY":0.0001154,"INCLINATION":53.1602,"RA_OF_ASC_NODE":203.8971,"ARG_OF_PERICENTER":125.7221,"MEAN_ANOMALY":234.3887,"EPHEMERIS_TYPE":0,"CLASSIFICATION_TYPE":"U","NORAD_CAT_ID":59259,"ELEMENT_SET_NO":999,"REV_AT_EPOCH":10979,"BSTAR":1.5717e-5,"MEAN_MOTION_DOT":1.06e-6,"MEAN_MOTION_DDOT":0},{"OBJECT_NAME":"STARLINK-31639","OBJECT_ID":"2024-050H","EPOCH":"2026-03-05T01:45:23.931360","MEAN_MOTION":15.30196839,"ECCENTRICITY":4.92e-5,"INCLINATION":53.1595,"RA_OF_ASC_NODE":202.3015,"ARG_OF_PERICENTER":21.6821,"MEAN_ANOMALY":338.42,"EPHEMERIS_TYPE":0,"CLASSIFICATION_TYPE":"U","NORAD_CAT_ID":59261,"ELEMENT_SET_NO":999,"REV_AT_EPOCH":10984,"BSTAR":1.0539e-5,"MEAN_MOTION_DOT":-4.7e-7,"MEAN_MOTION_DDOT":0},{"OBJECT_NAME":"STARLINK-31598","OBJECT_ID":"2024-050K","EPOCH":"2026-03-04T19:05:01.823136","MEAN_MOTION":15.30201273,"ECCENTRICITY":0.0001989,"INCLINATION":53.1617,"RA_OF_ASC_NODE":204.0999,"ARG_OF_PERICENTER":94.7839,"MEAN_ANOMALY":265.3389,"EPHEMERIS_TYPE":0,"CLASSIFICATION_TYPE":"U","NORAD_CAT_ID":59263,"ELEMENT_SET_NO":999,"REV_AT_EPOCH":10979,"BSTAR":7.6542e-5,"MEAN_MOTION_DOT":1.908e-5,"MEAN_MOTION_DDOT":0},{"OBJECT_NAME":"STARLINK-31645","OBJECT_ID":"2024-050L","EPOCH":"2026-03-04T18:28:33.309408","MEAN_MOTION":15.3023039,"ECCENTRICITY":0.0002221,"INCLINATION":53.1603,"RA_OF_ASC_NODE":203.9609,"ARG_OF_PERICENTER":319.3154,"MEAN_ANOMALY":40.7681,"EPHEMERIS_TYPE":0,"CLASSIFICATION_TYPE":"U","NORAD_CAT_ID":59264,"ELEMENT_SET_NO":999,"REV_AT_EPOCH":10979,"BSTAR":0.001839,"MEAN_MOTION_DOT":0.00054561,"MEAN_MOTION_DDOT":0},{"OBJECT_NAME":"STARLINK-31646","OBJECT_ID":"2024-050M","EPOCH":"2026-03-05T02:27:56.627136","MEAN_MOTION":15.30195837,"ECCENTRICITY":0.0001095,"INCLINATION":53.161,"RA_OF_ASC_NODE":202.481,"ARG_OF_PERICENTER":90.7453,"MEAN_ANOMALY":269.3673,"EPHEMERIS_TYPE":0,"CLASSIFICATION_TYPE":"U","NORAD_CAT_ID":59265,"ELEMENT_SET_NO":999,"REV_AT_EPOCH":10984,"BSTAR":0.00013453,"MEAN_MOTION_DOT":3.627e-5,"MEAN_MOTION_DDOT":0},{"OBJECT_NAME":"STARLINK-31648","OBJECT_ID":"2024-050N","EPOCH":"2026-03-05T01:54:31.580352","MEAN_MOTION":15.30189296,"ECCENTRICITY":0.000106,"INCLINATION":53.1615,"RA_OF_ASC_NODE":202.3395,"ARG_OF_PERICENTER":86.5353,"MEAN_ANOMALY":273.5769,"EPHEMERIS_TYPE":0,"CLASSIFICATION_TYPE":"U","NORAD_CAT_ID":59266,"ELEMENT_SET_NO":999,"REV_AT_EPOCH":10984,"BSTAR":6.7885e-6,"MEAN_MOTION_DOT":-1.58e-6,"MEAN_MOTION_DDOT":0},{"OBJECT_NAME":"STARLINK-31579","OBJECT_ID":"2024-050P","EPOCH":"2026-03-04T18:24:00.870336","MEAN_MOTION":15.30196457,"ECCENTRICITY":0.0001007,"INCLINATION":53.1614,"RA_OF_ASC_NODE":203.9429,"ARG_OF_PERICENTER":85.5994,"MEAN_ANOMALY":274.5122,"EPHEMERIS_TYPE":0,"CLASSIFICATION_TYPE":"U","NORAD_CAT_ID":59267,"ELEMENT_SET_NO":999,"REV_AT_EPOCH":10979,"BSTAR":7.4039e-5,"MEAN_MOTION_DOT":1.834e-5,"MEAN_MOTION_DDOT":0},{"OBJECT_NAME":"STARLINK-31627","OBJECT_ID":"2024-050Q","EPOCH":"2026-03-05T02:46:11.146656","MEAN_MOTION":15.30215606,"ECCENTRICITY":0.0001336,"INCLINATION":53.161,"RA_OF_ASC_NODE":202.5617,"ARG_OF_PERICENTER":82.7369,"MEAN_ANOMALY":277.3783,"EPHEMERIS_TYPE":0,"CLASSIFICATION_TYPE":"U","NORAD_CAT_ID":59268,"ELEMENT_SET_NO":999,"REV_AT_EPOCH":10984,"BSTAR":0.0011688,"MEAN_MOTION_DOT":0.00034434,"MEAN_MOTION_DDOT":0},{"OBJECT_NAME":"STARLINK-31609","OBJECT_ID":"2024-050R","EPOCH":"2026-03-04T18:33:07.167168","MEAN_MOTION":15.30204299,"ECCENTRICITY":0.00011,"INCLINATION":53.1597,"RA_OF_ASC_NODE":203.9779,"ARG_OF_PERICENTER":104.6504,"MEAN_ANOMALY":255.4619,"EPHEMERIS_TYPE":0,"CLASSIFICATION_TYPE":"U","NORAD_CAT_ID":59269,"ELEMENT_SET_NO":999,"REV_AT_EPOCH":10979,"BSTAR":0.00015153,"MEAN_MOTION_DOT":4.132e-5,"MEAN_MOTION_DDOT":0},{"OBJECT_NAME":"STARLINK-31616","OBJECT_ID":"2024-050S","EPOCH":"2026-03-04T09:17:55.400928","MEAN_MOTION":15.30204044,"ECCENTRICITY":0.00014055,"INCLINATION":53.1597,"RA_OF_ASC_NODE":205.8379,"ARG_OF_PERICENTER":82.9274,"MEAN_ANOMALY":277.1886,"EPHEMERIS_TYPE":0,"CLASSIFICATION_TYPE":"U","NORAD_CAT_ID":59270,"ELEMENT_SET_NO":999,"REV_AT_EPOCH":10973,"BSTAR":-4.8215142e-5,"MEAN_MOTION_DOT":-1.787e-5,"MEAN_MOTION_DDOT":0},{"OBJECT_NAME":"STARLINK-31630","OBJECT_ID":"2024-050T","EPOCH":"2026-03-03T16:34:16.919904","MEAN_MOTION":15.301995,"ECCENTRICITY":0.00015756,"INCLINATION":53.1615,"RA_OF_ASC_NODE":195.8102,"ARG_OF_PERICENTER":82.4316,"MEAN_ANOMALY":277.6863,"EPHEMERIS_TYPE":0,"CLASSIFICATION_TYPE":"U","NORAD_CAT_ID":59271,"ELEMENT_SET_NO":999,"REV_AT_EPOCH":10981,"BSTAR":5.2762815e-5,"MEAN_MOTION_DOT":1.204e-5,"MEAN_MOTION_DDOT":0},{"OBJECT_NAME":"STARLINK-31623","OBJECT_ID":"2024-050U","EPOCH":"2026-03-04T19:01:50.859264","MEAN_MOTION":15.3018689,"ECCENTRICITY":5.04e-5,"INCLINATION":53.162,"RA_OF_ASC_NODE":203.4059,"ARG_OF_PERICENTER":3.9665,"MEAN_ANOMALY":356.134,"EPHEMERIS_TYPE":0,"CLASSIFICATION_TYPE":"U","NORAD_CAT_ID":59272,"ELEMENT_SET_NO":999,"REV_AT_EPOCH":10980,"BSTAR":5.5274e-6,"MEAN_MOTION_DOT":-1.95e-6,"MEAN_MOTION_DDOT":0},{"OBJECT_NAME":"STARLINK-31595","OBJECT_ID":"2024-050V","EPOCH":"2026-03-04T21:16:56.084736","MEAN_MOTION":15.30182571,"ECCENTRICITY":9.87e-5,"INCLINATION":53.1589,"RA_OF_ASC_NODE":203.2849,"ARG_OF_PERICENTER":83.1491,"MEAN_ANOMALY":276.9622,"EPHEMERIS_TYPE":0,"CLASSIFICATION_TYPE":"U","NORAD_CAT_ID":59273,"ELEMENT_SET_NO":999,"REV_AT_EPOCH":10981,"BSTAR":1.4626e-5,"MEAN_MOTION_DOT":7.4e-7,"MEAN_MOTION_DDOT":0},{"OBJECT_NAME":"STARLINK-31463","OBJECT_ID":"2024-056A","EPOCH":"2026-03-04T20:59:32.740800","MEAN_MOTION":15.27568332,"ECCENTRICITY":0.0001092,"INCLINATION":42.9997,"RA_OF_ASC_NODE":253.954,"ARG_OF_PERICENTER":279.1265,"MEAN_ANOMALY":80.9463,"EPHEMERIS_TYPE":0,"CLASSIFICATION_TYPE":"U","NORAD_CAT_ID":59296,"ELEMENT_SET_NO":999,"REV_AT_EPOCH":11046,"BSTAR":7.0603e-5,"MEAN_MOTION_DOT":1.681e-5,"MEAN_MOTION_DDOT":0}]
